start=new Date('2022-01-17T00:00:00.000Z').valueOf();
sats=[{"TIME_SYSTEM":"UTC","PERIAPSIS":"545.384","ELEMENT_SET_NO":"999","ARG_OF_PERICENTER":"66.6127","TLE_LINE1":"1 47161U 20088AR  22016.33521243  .00001182  00000-0  98272-4 0  9995","INCLINATION":"53.0540","MEAN_ANOMALY":"293.5139","OBJECT_TYPE":"PAYLOAD","COUNTRY_CODE":"US","FILE":"3274671","SITE":"AFETR","EPHEMERIS_TYPE":"0","RA_OF_ASC_NODE":"245.3258","MEAN_ELEMENT_THEORY":"SGP4","REF_FRAME":"TEME","LAUNCH_DATE":"2020-11-25","RCS_SIZE":"LARGE","TLE_LINE2":"2 47161  53.0540 245.3258 0002629  66.6127 293.5139 15.06402910 63889","APOAPSIS":"549.025","DECAY_DATE":null,"MEAN_MOTION_DDOT":"0.0000000000000","MEAN_MOTION_DOT":"0.00001182","EPOCH":"2022-01-16T08:02:42.353952","REV_AT_EPOCH":"6388","NORAD_CAT_ID":"47161","BSTAR":"0.00009827200000","ECCENTRICITY":"0.00026290","OBJECT_ID":"2020-088AR","PERIOD":"95.592","SEMIMAJOR_AXIS":"6925.340","MEAN_MOTION":"15.06402910","CLASSIFICATION_TYPE":"U","GP_ID":"193985000","OBJECT_NAME":"STARLINK-1876","CENTER_NAME":"EARTH"},{"RCS_SIZE":"LARGE","TLE_LINE2":"2 47162  53.0540 255.0472 0002423  71.8172 288.3080 15.06414928 63751","APOAPSIS":"548.846","DECAY_DATE":null,"MEAN_ELEMENT_THEORY":"SGP4","RA_OF_ASC_NODE":"255.0472","REF_FRAME":"TEME","LAUNCH_DATE":"2020-11-25","MEAN_MOTION":"15.06414928","PERIOD":"95.591","SEMIMAJOR_AXIS":"6925.303","BSTAR":"0.00021401000000","OBJECT_ID":"2020-088AS","ECCENTRICITY":"0.00024230","CLASSIFICATION_TYPE":"U","OBJECT_NAME":"STARLINK-1877","GP_ID":"193985252","CENTER_NAME":"EARTH","MEAN_MOTION_DDOT":"0.0000000000000","MEAN_MOTION_DOT":"0.00002909","EPOCH":"2022-01-16T09:31:36.266592","NORAD_CAT_ID":"47162","REV_AT_EPOCH":"6375","ARG_OF_PERICENTER":"71.8172","TIME_SYSTEM":"UTC","PERIAPSIS":"545.490","ELEMENT_SET_NO":"999","COUNTRY_CODE":"US","MEAN_ANOMALY":"288.3080","OBJECT_TYPE":"PAYLOAD","FILE":"3274671","EPHEMERIS_TYPE":"0","SITE":"AFETR","TLE_LINE1":"1 47162U 20088AS  22016.39694753  .00002909  00000-0  21401-3 0  9996","INCLINATION":"53.0540"},{"REF_FRAME":"TEME","LAUNCH_DATE":"2020-11-25","RA_OF_ASC_NODE":"262.8438","MEAN_ELEMENT_THEORY":"SGP4","APOAPSIS":"548.662","TLE_LINE2":"2 47163  53.0474 262.8438 0002096  60.6805 299.4394 15.06401176 63933","DECAY_DATE":null,"RCS_SIZE":"LARGE","REV_AT_EPOCH":"6393","NORAD_CAT_ID":"47163","MEAN_MOTION_DOT":"-0.00001120","MEAN_MOTION_DDOT":"0.0000000000000","EPOCH":"2022-01-16T21:26:48.812064","GP_ID":"193991780","OBJECT_NAME":"STARLINK-1878","CENTER_NAME":"EARTH","OBJECT_ID":"2020-088AT","BSTAR":"-0.00005628100000","ECCENTRICITY":"0.00020960","PERIOD":"95.592","SEMIMAJOR_AXIS":"6925.345","MEAN_MOTION":"15.06401176","CLASSIFICATION_TYPE":"U","TIME_SYSTEM":"UTC","PERIAPSIS":"545.758","ELEMENT_SET_NO":"999","ARG_OF_PERICENTER":"60.6805","TLE_LINE1":"1 47163U 20088AT  22016.89362051 -.00001120  00000-0 -56281-4 0  9996","INCLINATION":"53.0474","EPHEMERIS_TYPE":"0","FILE":"3274860","SITE":"AFETR","MEAN_ANOMALY":"299.4394","OBJECT_TYPE":"PAYLOAD","COUNTRY_CODE":"US"},{"ELEMENT_SET_NO":"999","PERIAPSIS":"545.808","TIME_SYSTEM":"UTC","ARG_OF_PERICENTER":"65.9421","INCLINATION":"53.0545","TLE_LINE1":"1 47164U 20088AU  22016.88164949  .00000304  00000-0  39297-4 0  9991","MEAN_ANOMALY":"294.1776","OBJECT_TYPE":"PAYLOAD","COUNTRY_CODE":"US","FILE":"3274861","EPHEMERIS_TYPE":"0","SITE":"AFETR","RA_OF_ASC_NODE":"232.8742","MEAN_ELEMENT_THEORY":"SGP4","LAUNCH_DATE":"2020-11-25","REF_FRAME":"TEME","RCS_SIZE":"LARGE","DECAY_DATE":null,"TLE_LINE2":"2 47164  53.0545 232.8742 0001993  65.9421 294.1776 15.06408125 64359","APOAPSIS":"548.569","EPOCH":"2022-01-16T21:09:34.515936","MEAN_MOTION_DOT":"0.00000304","MEAN_MOTION_DDOT":"0.0000000000000","NORAD_CAT_ID":"47164","REV_AT_EPOCH":"6435","CLASSIFICATION_TYPE":"U","BSTAR":"0.00003929700000","OBJECT_ID":"2020-088AU","ECCENTRICITY":"0.00019930","PERIOD":"95.592","SEMIMAJOR_AXIS":"6925.324","MEAN_MOTION":"15.06408125","CENTER_NAME":"EARTH","GP_ID":"193992135","OBJECT_NAME":"STARLINK-1879"},{"MEAN_ELEMENT_THEORY":"SGP4","RA_OF_ASC_NODE":"252.8491","LAUNCH_DATE":"2020-11-25","REF_FRAME":"TEME","RCS_SIZE":"LARGE","DECAY_DATE":null,"APOAPSIS":"548.685","TLE_LINE2":"2 47165  53.0528 252.8491 0002176  73.2678 286.8549 15.06411521 64073","EPOCH":"2022-01-16T21:17:31.501824","MEAN_MOTION_DOT":"0.00001814","MEAN_MOTION_DDOT":"0.0000000000000","REV_AT_EPOCH":"6407","NORAD_CAT_ID":"47165","CLASSIFICATION_TYPE":"U","SEMIMAJOR_AXIS":"6925.313","PERIOD":"95.591","MEAN_MOTION":"15.06411521","OBJECT_ID":"2020-088AV","BSTAR":"0.00014061000000","ECCENTRICITY":"0.00021760","CENTER_NAME":"EARTH","OBJECT_NAME":"STARLINK-1880","GP_ID":"193992138","ELEMENT_SET_NO":"999","TIME_SYSTEM":"UTC","PERIAPSIS":"545.671","ARG_OF_PERICENTER":"73.2678","INCLINATION":"53.0528","TLE_LINE1":"1 47165U 20088AV  22016.88717016  .00001814  00000-0  14061-3 0  9999","COUNTRY_CODE":"US","MEAN_ANOMALY":"286.8549","OBJECT_TYPE":"PAYLOAD","EPHEMERIS_TYPE":"0","FILE":"3274861","SITE":"AFETR"},{"SITE":"AFETR","FILE":"3274671","EPHEMERIS_TYPE":"0","OBJECT_TYPE":"PAYLOAD","MEAN_ANOMALY":"238.8335","COUNTRY_CODE":"US","TLE_LINE1":"1 47166U 20088AW  22016.50522278  .00012440  00000-0  38417-3 0  9991","INCLINATION":"53.0484","ARG_OF_PERICENTER":"121.2884","PERIAPSIS":"462.548","TIME_SYSTEM":"UTC","ELEMENT_SET_NO":"999","GP_ID":"193985752","OBJECT_NAME":"STARLINK-1881","CENTER_NAME":"EARTH","BSTAR":"0.00038417000000","ECCENTRICITY":"0.00022240","OBJECT_ID":"2020-088AW","SEMIMAJOR_AXIS":"6842.204","PERIOD":"93.876","MEAN_MOTION":"15.33941183","CLASSIFICATION_TYPE":"U","REV_AT_EPOCH":"6449","NORAD_CAT_ID":"47166","MEAN_MOTION_DDOT":"0.0000000000000","MEAN_MOTION_DOT":"0.00012440","EPOCH":"2022-01-16T12:07:31.248192","APOAPSIS":"465.591","TLE_LINE2":"2 47166  53.0484 203.3398 0002224 121.2884 238.8335 15.33941183 64497","DECAY_DATE":null,"RCS_SIZE":"LARGE","REF_FRAME":"TEME","LAUNCH_DATE":"2020-11-25","RA_OF_ASC_NODE":"203.3398","MEAN_ELEMENT_THEORY":"SGP4"},{"TLE_LINE1":"1 47167U 20088AX  22016.87243044  .00000348  00000-0  42311-4 0  9996","INCLINATION":"53.0534","FILE":"3274867","EPHEMERIS_TYPE":"0","SITE":"AFETR","MEAN_ANOMALY":"181.4135","OBJECT_TYPE":"PAYLOAD","COUNTRY_CODE":"US","TIME_SYSTEM":"UTC","PERIAPSIS":"544.941","ELEMENT_SET_NO":"999","ARG_OF_PERICENTER":"178.6863","REV_AT_EPOCH":"6412","NORAD_CAT_ID":"47167","MEAN_MOTION_DDOT":"0.0000000000000","MEAN_MOTION_DOT":"0.00000348","EPOCH":"2022-01-16T20:56:17.990016","GP_ID":"193991813","OBJECT_NAME":"STARLINK-1884","CENTER_NAME":"EARTH","BSTAR":"0.00004231100000","OBJECT_ID":"2020-088AX","ECCENTRICITY":"0.00032530","PERIOD":"95.592","MEAN_MOTION":"15.06406531","SEMIMAJOR_AXIS":"6925.329","CLASSIFICATION_TYPE":"U","REF_FRAME":"TEME","LAUNCH_DATE":"2020-11-25","RA_OF_ASC_NODE":"252.9195","MEAN_ELEMENT_THEORY":"SGP4","APOAPSIS":"549.446","TLE_LINE2":"2 47167  53.0534 252.9195 0003253 178.6863 181.4135 15.06406531 64129","DECAY_DATE":null,"RCS_SIZE":"LARGE"},{"MEAN_ELEMENT_THEORY":"SGP4","RA_OF_ASC_NODE":"244.5025","REF_FRAME":"TEME","LAUNCH_DATE":"2020-11-25","RCS_SIZE":"LARGE","TLE_LINE2":"2 47168  53.0557 244.5025 0002024  47.2679 312.8493 15.34523721 64247","APOAPSIS":"463.722","DECAY_DATE":null,"MEAN_MOTION_DOT":"0.00489036","MEAN_MOTION_DDOT":"0.0000000000000","EPOCH":"2022-01-16T20:42:50.537952","NORAD_CAT_ID":"47168","REV_AT_EPOCH":"6424","PERIOD":"93.840","SEMIMAJOR_AXIS":"6840.473","MEAN_MOTION":"15.34523721","ECCENTRICITY":"0.00020240","BSTAR":"0.01351200000000","OBJECT_ID":"2020-088AY","CLASSIFICATION_TYPE":"U","OBJECT_NAME":"STARLINK-1885","GP_ID":"193992188","CENTER_NAME":"EARTH","PERIAPSIS":"460.953","TIME_SYSTEM":"UTC","ELEMENT_SET_NO":"999","ARG_OF_PERICENTER":"47.2679","TLE_LINE1":"1 47168U 20088AY  22016.86308493  .00489036  00000-0  13512-1 0  9999","INCLINATION":"53.0557","COUNTRY_CODE":"US","OBJECT_TYPE":"PAYLOAD","MEAN_ANOMALY":"312.8493","SITE":"AFETR","FILE":"3274864","EPHEMERIS_TYPE":"0"},{"REF_FRAME":"TEME","LAUNCH_DATE":"2020-11-25","MEAN_ELEMENT_THEORY":"SGP4","RA_OF_ASC_NODE":"252.6901","APOAPSIS":"548.827","TLE_LINE2":"2 47170  53.0525 252.6901 0002372  66.3799 293.7439 15.06409652 64128","DECAY_DATE":null,"RCS_SIZE":"LARGE","NORAD_CAT_ID":"47170","REV_AT_EPOCH":"6412","MEAN_MOTION_DOT":"0.00001826","MEAN_MOTION_DDOT":"0.0000000000000","EPOCH":"2022-01-16T22:10:36.717312","OBJECT_NAME":"STARLINK-1887","GP_ID":"193995294","CENTER_NAME":"EARTH","PERIOD":"95.592","SEMIMAJOR_AXIS":"6925.319","MEAN_MOTION":"15.06409652","OBJECT_ID":"2020-088BA","BSTAR":"0.00014144000000","ECCENTRICITY":"0.00023720","CLASSIFICATION_TYPE":"U","PERIAPSIS":"545.541","TIME_SYSTEM":"UTC","ELEMENT_SET_NO":"999","ARG_OF_PERICENTER":"66.3799","TLE_LINE1":"1 47170U 20088BA  22016.92403608  .00001826  00000-0  14144-3 0  9994","INCLINATION":"53.0525","SITE":"AFETR","FILE":"3275011","EPHEMERIS_TYPE":"0","COUNTRY_CODE":"US","MEAN_ANOMALY":"293.7439","OBJECT_TYPE":"PAYLOAD"},{"RCS_SIZE":"LARGE","APOAPSIS":"548.710","TLE_LINE2":"2 47171  53.0525 242.6110 0002174  89.3306 270.7932 15.06403062 64266","DECAY_DATE":null,"RA_OF_ASC_NODE":"242.6110","MEAN_ELEMENT_THEORY":"SGP4","REF_FRAME":"TEME","LAUNCH_DATE":"2020-11-25","OBJECT_ID":"2020-088BB","BSTAR":"-0.00000467760000","ECCENTRICITY":"0.00021740","PERIOD":"95.592","SEMIMAJOR_AXIS":"6925.339","MEAN_MOTION":"15.06403062","CLASSIFICATION_TYPE":"U","GP_ID":"193992881","OBJECT_NAME":"STARLINK-1888","CENTER_NAME":"EARTH","MEAN_MOTION_DDOT":"0.0000000000000","MEAN_MOTION_DOT":"-0.00000351","EPOCH":"2022-01-16T22:38:28.620384","NORAD_CAT_ID":"47171","REV_AT_EPOCH":"6426","ARG_OF_PERICENTER":"89.3306","PERIAPSIS":"545.699","TIME_SYSTEM":"UTC","ELEMENT_SET_NO":"999","OBJECT_TYPE":"PAYLOAD","MEAN_ANOMALY":"270.7932","COUNTRY_CODE":"US","EPHEMERIS_TYPE":"0","FILE":"3274914","SITE":"AFETR","TLE_LINE1":"1 47171U 20088BB  22016.94338681 -.00000351  00000-0 -46776-5 0  9997","INCLINATION":"53.0525"}];
